COSMOS 2426 (717)       
1 29671U 06062B   20127.09807606 -.00000021  00000-0  10000-3 0  9995
2 29671  64.9850 269.3416 0019938 171.1804   5.6304  2.12962410103999
COSMOS 2433 (720)       
1 32275U 07052A   20127.12407412 -.00000068  00000-0  10000-3 0  9995
2 32275  65.9684  30.3301 0002812 286.1458  28.5762  2.13104295 97504
COSMOS 2432 (719)       
1 32276U 07052B   20127.18829730 -.00000068  00000-0  10000-3 0  9993
2 32276  65.9808  30.4168 0011797 333.1556 341.1286  2.13103779 97500
COSMOS 2434 (721)       
1 32393U 07065A   20127.36625683 -.00000022  00000-0  00000+0 0  9993
2 32393  64.5896 267.8605 0004739  93.7879 294.2724  2.13103098 96226
COSMOS 2436 (723)       
1 32395U 07065C   20127.12039144 -.00000022  00000-0  10000-3 0  9995
2 32395  64.5966 267.9188 0014353   7.2592 328.4309  2.13102983 96140
COSMOS 2456 (730)       
1 36111U 09070A   20127.34014081  .00000094  00000-0  00000+0 0  9993
2 36111  64.2239 147.5339 0006073 304.8863 236.5532  2.13102922 80882
COSMOS 2457 (733)       
1 36112U 09070B   20126.84607579  .00000099  00000-0  00000+0 0  9993
2 36112  64.2060 147.4474 0004836 194.0145  91.8716  2.13101556 80878
COSMOS 2459 (731)       
1 36400U 10007A   20127.53560655 -.00000068  00000-0  10000-3 0  9997
2 36400  65.8709  29.2946 0027040 350.2369 135.4742  2.13105283 79246
COSMOS 2461 (735)       
1 36401U 10007B   20127.25449003 -.00000068  00000-0  10000-3 0  9990
2 36401  65.8651  29.2729 0007891  52.9106 125.7044  2.13102147 79231
COSMOS 2460 (732)       
1 36402U 10007C   20127.25077338 -.00000068  00000-0  10000-3 0  9999
2 36402  65.8545  29.2330 0001670   1.2400 213.7277  2.13101495 79236
COSMOS 2464 (736)       
1 37139U 10041C   20126.97843541 -.00000022  00000-0  00000-0 0  9996
2 37139  64.1916 267.3374 0026915  14.4822 299.9775  2.13100756 75294
COSMOS 2474 (742)       
1 37829U 11055A   20127.00840508  .00000098  00000-0  00000+0 0  9994
2 37829  64.5430 148.5533 0010394 249.3535 252.5355  2.13101836 66879
COSMOS 2476 (744)       
1 37867U 11064A   20127.25320424  .00000096  00000-0  00000-0 0  9992
2 37867  64.5235 148.5895 0021321 242.3362 133.6008  2.13102021 66239
COSMOS 2477 (745)       
1 37868U 11064B   20127.20748140  .00000096  00000-0  00000+0 0  9996
2 37868  64.5313 148.6465 0018952 244.1494 275.2284  2.13101843 66187
COSMOS 2475 (743)       
1 37869U 11064C   20127.17030560  .00000097  00000-0  00000-0 0  9995
2 37869  64.5390 148.6491 0023378 263.4166 184.7778  2.13102048 66191
COSMOS 2485 (747)       
1 39155U 13019A   20127.36542748  .00000095  00000-0  00000+0 0  9991
2 39155  64.6908 148.8455 0021715 238.2414 268.3671  2.13101963 54708
COSMOS 2492 (754)       
1 39620U 14012A   20127.23022181 -.00000068  00000-0  10000-3 0  9998
2 39620  65.7442  29.0205 0014819 328.7177 109.2578  2.13103324 47659
COSMOS 2500 (755)       
1 40001U 14032A   20127.53028248 -.00000069  00000-0  00000+0 0  9994
2 40001  65.6843  28.9308 0004773 215.8474 312.9725  2.13102756 45871
COSMOS 2501 (702K)      
1 40315U 14075A   20127.14785598 -.00000023  00000-0  00000+0 0  9994
2 40315  63.9080 268.2924 0015811 204.4064 186.3527  2.13098618 42275
COSMOS 2514 (751)       
1 41330U 16008A   20127.27812858 -.00000069  00000-0  00000+0 0  9994
2 41330  65.4871  28.8212 0008483 221.0364 296.6839  2.13103129 33032
COSMOS 2516 (753)       
1 41554U 16032A   20127.20315104 -.00000022  00000-0  00000-0 0  9994
2 41554  64.1307 268.3474 0011380 212.0482 138.9148  2.13101721 30632
COSMOS 2522 (752)       
1 42939U 17055A   20127.47447464 -.00000022  00000-0  00000+0 0  9991
2 42939  64.3633 268.5047 0005789 243.5062 182.1806  2.13102016 20405
COSMOS 2527 (756)       
1 43508U 18053A   20127.07489900  .00000098  00000-0  00000-0 0  9993
2 43508  64.8552 148.6937 0009098 242.4265 268.4583  2.13102687 14686
COSMOS 2529 (757)       
1 43687U 18086A   20127.07459806 -.00000022  00000-0  00000-0 0  9997
2 43687  64.5792 268.6330 0008187 274.2923 160.2365  2.13102089 11702
COSMOS 2534 (758)       
1 44299U 19030A   20126.88351692 -.00000021  00000-0  00000+0 0  9997
2 44299  64.6491 268.4484 0011584 294.1270 128.8751  2.13102045  7344
